IRIDIUM 116             
1 43072U 17083C   23360.43359001  .00000535  00000+0  18382-3 0  9991
2 43072  86.3978 339.7224 0003642  68.7877 291.3707 14.34215521314631
IRIDIUM 130             
1 43073U 17083D   23360.47165698  .00000487  00000+0  16688-3 0  9996
2 43073  86.3976 339.8955 0002412  86.8542 273.2930 14.34213982314586
IRIDIUM 151             
1 43074U 17083E   23360.44628841  .00000519  00000+0  17810-3 0  9992
2 43074  86.3967 339.7551 0002232  99.4136 260.7312 14.34223656314604
IRIDIUM 134             
1 43075U 17083F   23360.48433947  .00000535  00000+0  18397-3 0  9997
2 43075  86.3971 339.7349 0002402  87.5181 272.6290 14.34214517314571
IRIDIUM 137             
1 43076U 17083G   23360.00865021  .00000495  00000+0  16954-3 0  9990
2 43076  86.3971 340.0087 0001873  91.6422 268.4988 14.34224138314578
IRIDIUM 141             
1 43077U 17083H   23360.49068322  .00000495  00000+0  16958-3 0  9997
2 43077  86.3966 339.6892 0002321  91.8557 268.2905 14.34217591314641
IRIDIUM 153             
1 43078U 17083J   23360.37309352  .00000505  00000+0  17309-3 0  9999
2 43078  86.3967 308.1899 0002574  93.8491 266.2999 14.34221678315733
IRIDIUM 131             
1 43079U 17083K   23360.40822579  .00000519  00000+0  17820-3 0  9998
2 43079  86.3973 339.8490 0002209  91.0199 269.1249 14.34224191314562
